OBJECT_NAME,OBJECT_ID,EPOCH,MEAN_MOTION,ECCENTRICITY,INCLINATION,RA_OF_ASC_NODE,ARG_OF_PERICENTER,MEAN_ANOMALY,EPHEMERIS_TYPE,CLASSIFICATION_TYPE,NORAD_CAT_ID,ELEMENT_SET_NO,REV_AT_EPOCH,BSTAR,MEAN_MOTION_DOT,MEAN_MOTION_DDOT
BRITE-AUSTRIA,2013-009F,2026-06-07T17:39:04.505184,14.36538507,.0008958,98.3993,338.4054,268.4216,91.5944,0,U,39091,999,69569,.86658E-4,.212E-5,0
SBIRS GEO-2 (USA 241),2013-011A,2026-06-07T11:28:45.329088,1.00272460,.0002177,4.4696,52.5057,17.0704,308.6858,0,U,39120,999,4843,0,-.272E-5,0
EUTELSAT 117 WEST A,2013-012A,2026-06-07T14:34:57.070272,1.00272042,.0002852,0.0425,62.9936,17.4598,277.4922,0,U,39122,999,4833,0,.2E-7,0
ANIK G1,2013-014A,2026-06-07T16:20:19.397184,1.00271947,.0001746,0.0447,87.7873,342.3597,323.7133,0,U,39127,999,4815,0,-.59E-6,0
GAOFEN-1,2013-018A,2026-06-07T18:41:34.957248,14.76526631,.0015917,97.9091,231.0378,299.8820,60.0808,0,U,39150,999,70685,.50569E-4,.302E-5,0
NEE-01 PEGASO,2013-018B,2026-06-07T03:35:46.945824,14.93612333,.0012393,98.1215,301.9695,190.8803,169.2150,0,U,39151,999,70920,.3466E-3,.3603E-4,0
COSMOS 2485 [GLONASS-M],2013-019A,2026-06-06T02:48:31.416192,2.13103501,.00234828,65.4139,73.9758,234.9271,124.8751,0,U,39155,999,10204,0,-.7E-7,0
ZHONGXING-11,2013-020A,2026-06-07T22:01:50.037600,1.00274028,.0002538,0.0308,39.6313,31.3402,253.7157,0,U,39157,999,4780,0,-.276E-5,0
PROBA-V,2013-021A,2026-06-07T16:49:25.610304,14.23595027,.0004696,98.3579,137.7762,146.4543,213.6935,0,U,39159,999,67976,.59063E-4,.94E-6,0
VNREDSAT 1,2013-021B,2026-06-07T20:49:14.793312,14.64847183,.00017,97.9081,212.6413,90.6787,269.4612,0,U,39160,999,69892,.11535E-3,.571E-5,0
EUTELSAT 7B,2013-022A,2026-06-07T18:35:40.742304,1.00271185,.0005046,0.0683,9.6083,26.2175,146.2645,0,U,39163,999,4785,0,.63E-6,0
NAVSTAR 68 (USA 242),2013-023A,2026-06-07T05:04:40.774656,2.00563548,.0141608,54.5121,269.3802,50.9995,310.2743,0,U,39166,999,9568,0,-.31E-6,0
WGS F5 (USA 243),2013-024A,2026-06-07T18:18:42.368832,1.00270128,.0000277,0.0191,309.6637,88.6861,79.9907,0,U,39168,999,4708,0,-.269E-5,0
SES-6,2013-026A,2026-06-07T18:22:04.544832,1.00270488,.0002702,0.0225,318.5847,135.3289,37.2768,0,U,39172,999,4763,0,-.246E-5,0
COSMOS 2486,2013-028A,2026-06-07T20:59:32.093664,14.56190562,.0012125,98.0141,126.6355,49.4054,310.8198,0,U,39177,999,69002,.51976E-4,.186E-5,0
O3B FM5,2013-031A,2026-06-07T15:29:00.483072,5.00116559,.0002986,0.0992,347.2339,76.5287,296.2699,0,U,39188,999,23656,0,-.11E-6,0
O3B FM4,2013-031B,2026-06-07T13:33:06.490944,5.00115248,.0005088,0.0433,346.0499,82.1038,291.9022,0,U,39189,999,23656,0,-.11E-6,0
O3B FM2,2013-031C,2026-06-07T15:07:27.736032,5.00116040,.0002762,0.0390,340.0580,93.8851,286.0890,0,U,39190,999,23663,0,-.11E-6,0
O3B PFM,2013-031D,2026-06-07T15:27:47.657376,5.00115987,.000533,0.0683,353.7359,79.1419,287.1823,0,U,39191,999,23619,0,-.11E-6,0
IRIS,2013-033A,2026-06-07T19:18:23.006016,14.85867631,.0024283,97.9336,358.1109,353.2047,6.8835,0,U,39197,999,69898,.15514E-3,.1302E-4,0
IRNSS-1A,2013-034A,2026-05-22T20:37:38.469792,1.00280263,.00166187,35.6649,64.2334,185.3754,355.4646,0,U,39199,999,4711,0,.59E-6,0
SJ-11-05,2013-035A,2026-06-07T20:02:09.754368,14.64880080,.0008597,98.2861,343.5822,265.2549,94.7672,0,U,39202,999,68786,.13506E-3,.672E-5,0
MUOS-2,2013-036A,2026-06-07T14:24:57.119040,1.00271551,.0050633,4.9771,45.5214,177.9917,60.6612,0,U,39206,999,4709,0,.1E-7,0
SHIYAN-7 (SY-7),2013-037A,2026-06-07T17:28:16.297824,14.72274912,.000804,98.0884,162.0169,166.9088,193.2329,0,U,39208,999,69081,.12641E-3,.748E-5,0
CHUANGXIN-3 (CX-3),2013-037B,2026-06-07T18:24:10.892736,14.74592693,.000471,98.0812,165.0243,146.8365,213.3140,0,U,39209,999,69096,.18851E-3,.1205E-4,0
SHIJIAN-15 (SJ-15),2013-037C,2026-06-07T20:19:10.615296,14.71490963,.0006383,98.1042,161.8850,164.9745,195.1653,0,U,39210,999,69295,.13987E-3,.818E-5,0
ALPHASAT,2013-038A,2026-06-07T13:32:42.112320,1.00270633,.0001959,2.9979,1.4237,77.3938,45.1864,0,U,39215,999,4392,0,.147E-5,0
INSAT-3D,2013-038B,2026-06-07T19:10:35.289984,1.00274279,.0000843,1.9008,82.6631,320.0423,270.6425,0,U,39216,999,4698,0,-.324E-5,0
WGS F6 (USA 244),2013-041A,2026-06-07T17:55:02.734752,1.00271538,.0000104,0.0180,353.3941,86.7566,309.5924,0,U,39222,999,4596,0,.104E-5,0
ARIRANG-5 (KOMPSAT-5),2013-042A,2026-06-07T20:30:53.296992,15.04557028,.0004125,97.6215,345.6867,143.8029,216.3476,0,U,39227,999,70245,.16992E-3,.2322E-4,0
ES'HAIL 1,2013-044A,2026-06-07T16:58:14.697120,1.00270716,.0002381,0.0483,1.1225,71.3585,103.6611,0,U,39233,999,4653,0,.158E-5,0
